[{"OBJECT_NAME":"STARLINK-35533","OBJECT_ID":"2025-259H","EPOCH":"2026-03-08T23:24:31.730400","MEAN_MOTION":15.27541105,"ECCENTRICITY":0.00030097,"INCLINATION":43.0059,"RA_OF_ASC_NODE":278.2403,"ARG_OF_PERICENTER":262.8657,"MEAN_ANOMALY":97.1852,"EPHEMERIS_TYPE":0,"CLASSIFICATION_TYPE":"U","NORAD_CAT_ID":66429,"ELEMENT_SET_NO":999,"REV_AT_EPOCH":1938,"BSTAR":0.0015615382,"MEAN_MOTION_DOT":0.0004291,"MEAN_MOTION_DDOT":0},{"OBJECT_NAME":"TRANSPORTER-1 OBJECT L","OBJECT_ID":"2021-006L","EPOCH":"2026-03-09T22:38:42.795168","MEAN_MOTION":15.33192932,"ECCENTRICITY":0.00114726,"INCLINATION":97.2368,"RA_OF_ASC_NODE":117.6447,"ARG_OF_PERICENTER":180.5165,"MEAN_ANOMALY":179.6068,"EPHEMERIS_TYPE":0,"CLASSIFICATION_TYPE":"U","NORAD_CAT_ID":47423,"ELEMENT_SET_NO":999,"REV_AT_EPOCH":28445,"BSTAR":0.00025636794,"MEAN_MOTION_DOT":8.162e-5,"MEAN_MOTION_DDOT":0}]
